{
  "norad_id": 1512,
  "name": "TEMPSAT 1",
  "history": [
    {
      "epoch": "2026-03-28T20:48:07.956000Z",
      "apogee_km": 1186.937980213529,
      "perigee_km": 1079.5649356241156,
      "latitude_deg": 65.8594416721997,
      "longitude_deg": -105.7385299098714,
      "height_km": 1091.017994035718,
      "semi_major_axis_km": 7511.388457918822,
      "eccentricity": 0.00714735,
      "inclination_deg": 89.9976,
      "raan_deg": 212.581,
      "arg_perigee_deg": 113.8002,
      "mean_anomaly_deg": 0.4144,
      "mean_motion_rev_day": 13.33590301
    }
  ]
}