{"fetched_at":"2026-03-29T16:36:15Z","count":15609,"tles":[{"name":"TEMPSAT 1","line1":"1 01512U 65065E   26087.86675875  .00000033  00000+0  46506-4 0  9996","line2":"2 01512  89.9976 212.5810 0071473 113.8002   0.4144 13.33590301949345","category":"Other"}]}